WILDBLUE-1              
1 29643U 06054A   22041.51426573 -.00000044  00000+0  00000+0 0  9998
2 29643   0.0098 133.0314 0001856 185.1626 256.2898  1.00271638 37870
AMC-18                  
1 29644U 06054B   22041.53246192 -.00000211  00000+0  00000+0 0  9994
2 29644   0.0558 280.2085 0002641  37.2451 291.7835  1.00273828 55630
INSAT-4B                
1 30793U 07007A   22041.34484144 -.00000173  00000+0  00000+0 0  9997
2 30793   1.9946  93.3260 0010636 117.4097  51.8216  0.99080430 26285
SKYNET 5A               
1 30794U 07007B   22041.50785229 -.00000268  00000+0  00000+0 0  9999
2 30794   1.9936  88.8558 0003263 238.1308  91.6208  1.00268610 54733
ANIK F3                 
1 31102U 07009A   22041.52877748  .00000004  00000+0  00000+0 0  9992
2 31102   0.0069 119.9147 0002462 200.3842 251.9170  1.00270448 30643
ASTRA 1L                
1 31306U 07016A   22041.34902791  .00000124  00000+0  00000+0 0  9996
2 31306   0.0991 291.7511 0005197  13.3287 340.1654  1.00274627 29098
GALAXY 17 (G-17)        
1 31307U 07016B   22041.39891674 -.00000170  00000+0  00000+0 0  9991
2 31307   0.0135  64.8038 0003327 259.2371 228.9880  1.00271440 53888
ZHONGXING-6B            
1 31800U 07031A   22041.51186432 -.00000357  00000+0  00000+0 0  9996
2 31800   0.0313 237.1750 0003754  87.2583 115.8534  1.00268670 53508
DIRECTV 10              
1 31862U 07032A   22041.39656184 -.00000099  00000+0  00000+0 0  9990
2 31862   0.0114 268.0551 0000039 105.5105 166.8185  1.00271794 29674
SPACEWAY 3              
1 32018U 07036A   22041.52452984 -.00000147  00000+0  00000+0 0  9999
2 32018   0.0061 108.9031 0000267 230.1535 255.3709  1.00273629 30632
BSAT-3A                 
1 32019U 07036B   22041.51073049 -.00000346  00000+0  00000+0 0  9991
2 32019   0.0765 257.0081 0002748  12.5878 164.6378  1.00271217 34597
OPTUS D2                
1 32252U 07044A   22041.51910344 -.00000179  00000+0  00000+0 0  9991
2 32252   0.0160  95.7343 0003797 226.1398 157.5469  1.00272235 52658
INTELSAT 11 (IS-11)     
1 32253U 07044B   22041.48020411 -.00000265  00000+0  00000+0 0  9991
2 32253   0.0104 103.6418 0001813 210.2430 316.5028  1.00266585 52577
WGS F1 (USA 195)        
1 32258U 07046A   22041.34649858  .00000045  00000+0  00000+0 0  9990
2 32258   0.0120 118.1726 0000532 141.7006  11.2162  1.00272188 36427
STAR ONE C1             
1 32293U 07056A   22041.47043567 -.00000165  00000+0  00000+0 0  9993
2 32293   0.6432  94.3440 0005574 225.3442 258.1456  1.00272118 35857
SKYNET 5B               
1 32294U 07056B   22041.27846837  .00000145  00000+0  00000+0 0  9990
2 32294   1.2074  90.0677 0003879 232.5481 303.0075  1.00271460 52272
ASTRA 4A (SIRIUS 4)     
1 32299U 07057A   22041.34623692  .00000036  00000+0  00000+0 0  9995
2 32299   0.0433 287.0775 0003111  23.7230 319.0254  1.00271522 35750
HORIZONS 2              
1 32388U 07063B   22041.50575906 -.00000178  00000+0  00000+0 0  9991
2 32388   0.0164  69.4108 0002972 245.1246  92.9169  1.00272130 51894
THURAYA-3               
1 32404U 08001A   22041.50846281 -.00000298  00000+0  00000+0 0  9993
2 32404   3.9714  20.9975 0001935 286.8496 114.2326  1.00273125 51570
EXPRESS-AM33            
1 32478U 08003A   22041.41487767 -.00000085  00000+0  00000+0 0  9990
2 32478   0.7400  94.7403 0000627 166.8407  17.2809  1.00272419 37813
THOR 5                  
1 32487U 08006A   22041.34510309 -.00000005  00000+0  00000+0 0  9996
2 32487   0.0480 269.2933 0002823  57.9620 296.6050  1.00271124 51389
AMC-14                  
1 32708U 08011A   22041.18035524  .00000077  00000+0  00000+0 0  9999
2 32708  21.8827  39.7664 0041682 355.1150 188.2634  1.00272128 52233
DIRECTV 11              
1 32729U 08013A   22041.52195479 -.00000121  00000+0  00000+0 0  9999
2 32729   0.0021 252.8701 0000120 214.8317 121.5674  1.00269253 29670
ICO G1                  
1 32763U 08016A   22041.52613469 -.00000167  00000+0  00000+0 0  9994
2 32763   3.9187  24.2734 0002452 299.2298 273.5979  1.00273034 50622
VINASAT-1               
1 32767U 08018A   22041.51509140 -.00000324  00000+0  00000+0 0  9994
2 32767   0.0293 285.3633 0001555  55.7395 116.8052  1.00272817 50681
STAR ONE C2             
1 32768U 08018B   22041.54384282 -.00000272  00000+0  00000+0 0  9998
2 32768   0.0499  83.3205 0002518 246.5047 301.5137  1.00273930 50757
TIANLIAN 1-01           
1 32779U 08019A   22041.57658024 -.00000139  00000+0  00000+0 0  9994
2 32779   5.4553  69.4370 0032724 271.6916  87.0620  1.00272208 50540
AMOS-3                  
1 32794U 08022A   22041.34440534 -.00000031  00000+0  00000+0 0  9996
2 32794   0.0624 273.9426 0001812  54.9082 291.3938  1.00270861 66420
GALAXY 18 (G-18)        
1 32951U 08024A   22041.41854928  .00000030  00000+0  00000+0 0  9995
2 32951   0.0137 103.8010 0003122 222.4035 201.9182  1.00271416 29930
CHINASAT 9 (ZX 9)       
1 33051U 08028A   22041.50724176 -.00000244  00000+0  00000+0 0  9990
2 33051   0.0133 142.0287 0004177 196.5547  76.7461  1.00273086 50116
SKYNET 5C               
1 33055U 08030A   22041.41348219 -.00000136  00000+0  00000+0 0  9997
2 33055   0.0641 358.2646 0003441 316.4661 316.7114  1.00271883 50033
TURKSAT 3A              
1 33056U 08030B   22041.21009903  .00000150  00000+0  00000+0 0  9995
2 33056   0.0187  86.2829 0003305 251.4810 280.1149  1.00275192 36430
INTELSAT 25 (IS-25)     
1 33153U 08034A   22041.48255900 -.00000220  00000+0  00000+0 0  9995
2 33153   0.0127 140.2096 0003084 191.3262 311.1914  1.00272515 49778
BADR-6                  
1 33154U 08034B   22041.27864280  .00000149  00000+0  00000+0 0  9999
2 33154   0.0544  51.7720 0005686 306.2297 268.6335  1.00276007 49837
ECHOSTAR 11             
1 33207U 08035A   22041.46685972 -.00000052  00000+0  00000+0 0  9993
2 33207   0.0514 278.3541 0002827  37.3350 242.8659  1.00271926 35313
SUPERBIRD-C2            
1 33274U 08038A   22041.51753351 -.00000247  00000+0  00000+0 0  9999
2 33274   0.0100 163.3469 0001598 162.7984 144.6555  1.00271493 89817
AMC-21                  
1 33275U 08038B   22041.50571716  .00000040  00000+0  00000+0 0  9992
2 33275   0.0369 289.1018 0002862  36.2200 232.3630  1.00272838 49575
INMARSAT 4-F3           
1 33278U 08039A   22041.45257644 -.00000135  00000+0  00000+0 0  9997
2 33278   3.2697  18.5973 0002596 310.2164 236.5968  1.00271319 30628
NIMIQ 4                 
1 33373U 08044A   22041.47244169 -.00000216  00000+0  00000+0 0  9999
2 33373   0.0073  59.4378 0002425 273.0101 256.1171  1.00272471 49060
GALAXY 19 (G-19)        
1 33376U 08045A   22041.45257644 -.00000135  00000+0  00000+0 0  9993
2 33376   0.0111 114.5773 0003316 201.7337 250.1007  1.00271758 48986
ASTRA 1M                
1 33436U 08057A   22041.34902791  .00000123  00000+0  00000+0 0  9997
2 33436   0.0121 113.1844 0000746 201.9946 329.9851  1.00272089 29800
CIEL-2                  
1 33453U 08063A   22041.50317749  .00000062  00000+0  00000+0 0  9996
2 33453   0.0567 268.9584 0003179  55.6267 228.2327  1.00272690 48219
EUTELSAT HOTBIRD 13C    
1 33459U 08065A   22041.34780685  .00000090  00000+0  00000+0 0  9990
2 33459   0.0472 339.9021 0003250   7.5655 291.0875  1.00271025 31424
EUTELSAT 48D            
1 33460U 08065B   22041.34274819 -.00000097  00000+0  00000+0 0  9997
2 33460   1.1420  94.2128 0003391 223.4380 293.6052  1.00272270 48033
FENGYUN 2E              
1 33463U 08066A   22041.57788852 -.00000203  00000+0  00000+0 0  9992
2 33463   5.6262  66.0283 0003809 350.2153  19.0268  1.00276178 48174
EXPRESS-AM44            
1 33595U 09007A   22040.98420389 -.00000085  00000+0  00000+0 0  9994
2 33595   0.0306 231.4213 0000718 181.6503  70.2409  1.00271217 47635
NSS-9                   
1 33749U 09008A   22041.52529593  .00000076  00000+0  00000+0 0  9993
2 33749   0.0573 286.8278 0002278  41.9799 183.9002  1.00271937 47613
EUTELSAT 33E            
1 33750U 09008B   22041.49538008  .00000160  00000+0  00000+0 0  9996
2 33750   0.0540  18.3210 0003656 303.3026  30.2955  1.00272255 47527
TELSTAR 11N             
1 34111U 09009A   22041.40955735 -.00000246  00000+0  00000+0 0  9996
2 34111   0.0140 102.2127 0002652 206.1125 302.0139  1.00272859 30313
EUTELSAT 10A            
1 34710U 09016A   22041.34728354  .00000072  00000+0  00000+0 0  9993
2 34710   0.0612  12.7053 0005450 312.2415 310.4330  1.00272118 25335
WGS F2 (USA 204)        
1 34713U 09017A   22041.50026431  .00000072  00000+0  00000+0 0  9992
2 34713   0.0184 103.8698 0000513 245.4325  28.8012  1.00272353 29692
SES-7 (PROTOSTAR 2)     
1 34941U 09027A   22041.51038161 -.00000341  00000+0  00000+0 0  9990
2 34941   0.0152  61.1699 0002082 217.8109 153.5345  1.00272043 46693
MEASAT-3A               
1 35362U 09032A   22041.50706733 -.00000237  00000+0  00000+0 0  9994
2 35362   0.0602 251.5622 0002278  36.8010 126.2095  1.00270607 46322
GOES 14                 
1 35491U 09033A   22041.45257644 -.00000088  00000+0  00000+0 0  9998
2 35491   0.0267  28.1823 0013624 200.5444 330.2013  1.00271756 46199
FM-5                    
1 35493U 09034A   22041.53068734 -.00000196  00000+0  00000+0 0  9990
2 35493   0.0255  89.9560 0000606 322.8953 192.6308  1.00273766 30722
TERRESTAR-1             
1 35496U 09035A   22041.45813372 -.00000052  00000+0  00000+0 0  9992
2 35496   3.0312  35.7893 0002826 291.3563 227.2668  1.00271556 46213
ASIASAT 5               
1 35696U 09042A   22041.50881169 -.00000303  00000+0  00000+0 0  9996
2 35696   0.0050 110.7857 0001514 208.9248 104.4655  1.00268391 45766
JCSAT-RA (JCSAT-12)     
1 35755U 09044A   22041.51421921 -.00000343  00000+0  00000+0 0  9995
2 35755   0.0321 239.4215 0004440  79.8050 133.9093  1.00272460 45683
OPTUS D3                
1 35756U 09044B   22041.51988840 -.00000144  00000+0  00000+0 0  9993
2 35756   0.0493 317.2623 0004337  13.0212 153.4187  1.00269234 45649
